$$SOE
2461295.500000000, A.D. 2026-Sep-12 00:00:00.0000, -1.543552909723487E+08, -4.423432483107392E+08, -8.252763906576064E+07,
2461302.500000000, A.D. 2026-Sep-19 00:00:00.0000, -1.447341526500835E+08, -4.452897295484941E+08, -8.382543092640710E+07,
2461309.500000000, A.D. 2026-Sep-26 00:00:00.0000, -1.350477149563070E+08, -4.480353816894036E+08, -8.508541086112663E+07,
2461316.500000000, A.D. 2026-Oct-03 00:00:00.0000, -1.253003300405820E+08, -4.505789089998337E+08, -8.630699917065704E+07,
2461323.500000000, A.D. 2026-Oct-10 00:00:00.0000, -1.154963803658229E+08, -4.529191088521446E+08, -8.748963363885528E+07,
2461330.500000000, A.D. 2026-Oct-17 00:00:00.0000, -1.056402766571480E+08, -4.550548723514695E+08, -8.863276982209042E+07,
2461337.500000000, A.D. 2026-Oct-24 00:00:00.0000, -9.573645584102151E+07, -4.569851850093299E+08, -8.973588133729029E+07,
2461344.500000000, A.D. 2026-Oct-31 00:00:00.0000, -8.578937887714620E+07, -4.587091275305655E+08, -9.079846016293550E+07,
2461351.500000000, A.D. 2026-Nov-07 00:00:00.0000, -7.580352814557470E+07, -4.602258766392597E+08, -9.182001697776619E+07,
2461358.500000000, A.D. 2026-Nov-14 00:00:00.0000, -6.578340418982013E+07, -4.615347050558170E+08, -9.280008148269790E+07,
2461365.500000000, A.D. 2026-Nov-21 00:00:00.0000, -5.573352362933132E+07, -4.626349799423411E+08, -9.373820248343733E+07,
2461372.500000000, A.D. 2026-Nov-28 00:00:00.0000, -4.565841924046123E+07, -4.635261628228993E+08, -9.463394788733143E+07,
2461379.500000000, A.D. 2026-Dec-05 00:00:00.0000, -3.556263858704866E+07, -4.642078116345681E+08, -9.548690499962190E+07,
2461386.500000000, A.D. 2026-Dec-12 00:00:00.0000, -2.545074103699300E+07, -4.646795817988576E+08, -9.629668087982622E+07,
2461393.500000000, A.D. 2026-Dec-19 00:00:00.0000, -1.532729505384652E+07, -4.649412263072314E+08, -9.706290258431950E+07,
2461400.500000000, A.D. 2026-Dec-26 00:00:00.0000, -5.196875907574778E+06, -4.649925956884352E+08, -9.778521735257298E+07,
2461407.500000000, A.D. 2027-Jan-02 00:00:00.0000, 4.935936469458077E+06, -4.648336380481409E+08, -9.846329277751458E+07,
2461414.500000000, A.D. 2027-Jan-09 00:00:00.0000, 1.506655959611837E+07, -4.644643991602743E+08, -9.909681696866640E+07,
2461421.500000000, A.D. 2027-Jan-16 00:00:00.0000, 2.519041055882344E+07, -4.638850226008785E+08, -9.968549871026072E+07,
2461428.500000000, A.D. 2027-Jan-23 00:00:00.0000, 3.530290817410670E+07, -4.630957499642556E+08, -1.002290676216995E+08,
2461435.500000000, A.D. 2027-Jan-30 00:00:00.0000, 4.539947538237546E+07, -4.620969212097906E+08, -1.007272743416061E+08,
2461442.500000000, A.D. 2027-Feb-06 00:00:00.0000, 5.547554229444113E+07, -4.608889748002788E+08, -1.011798907468563E+08,
2461449.500000000, A.D. 2027-Feb-13 00:00:00.0000, 6.552654942711709E+07, -4.594724464127341E+08, -1.015867100648456E+08,
2461456.500000000, A.D. 2027-Feb-20 00:00:00.0000, 7.554794876079422E+07, -4.578479670124832E+08, -1.019475467267717E+08,
2461463.500000000, A.D. 2027-Feb-27 00:00:00.0000, 8.553520401272026E+07, -4.560162635034633E+08, -1.022622363525045E+08,
2461470.500000000, A.D. 2027-Mar-06 00:00:00.0000, 9.548379314275056E+07, -4.539781600326234E+08, -1.025306359871047E+08,
2461477.500000000, A.D. 2027-Mar-13 00:00:00.0000, 1.053892114896525E+08, -4.517345779003643E+08, -1.027526242752925E+08,
2461484.500000000, A.D. 2027-Mar-20 00:00:00.0000, 1.152469744063640E+08, -4.492865349125975E+08, -1.029281015387726E+08,
2461491.500000000, A.D. 2027-Mar-27 00:00:00.0000, 1.250526195938198E+08, -4.466351447236310E+08, -1.030569898197417E+08,
2461498.500000000, A.D. 2027-Apr-03 00:00:00.0000, 1.348017093337766E+08, -4.437816162172046E+08, -1.031392329126682E+08,
2461505.500000000, A.D. 2027-Apr-10 00:00:00.0000, 1.444898326797580E+08, -4.407272529014507E+08, -1.031747963873696E+08,
2461512.500000000, A.D. 2027-Apr-17 00:00:00.0000, 1.541126076270348E+08, -4.374734523306414E+08, -1.031636676059301E+08,
2461519.500000000, A.D. 2027-Apr-24 00:00:00.0000, 1.636656833408419E+08, -4.340217056152439E+08, -1.031058557456899E+08,
2461526.500000000, A.D. 2027-May-01 00:00:00.0000, 1.731447427428664E+08, -4.303735969935402E+08, -1.030013918541188E+08,
2461533.500000000, A.D. 2027-May-08 00:00:00.0000, 1.825455057630847E+08, -4.265308027189564E+08, -1.028503289035695E+08,
2461540.500000000, A.D. 2027-May-15 00:00:00.0000, 1.918637317584169E+08, -4.224950883122818E+08, -1.026527416313978E+08,
2461547.500000000, A.D. 2027-May-22 00:00:00.0000, 2.010952195318128E+08, -4.182683067713771E+08, -1.024087262338127E+08,
2461554.500000000, A.D. 2027-May-29 00:00:00.0000, 2.102358083057904E+08, -4.138523992064226E+08, -1.021184003409103E+08,
2461561.500000000, A.D. 2027-Jun-05 00:00:00.0000, 2.192813805342556E+08, -4.092493947695551E+08, -1.017819030980683E+08,
2461568.500000000, A.D. 2027-Jun-12 00:00:00.0000, 2.282278645439462E+08, -4.044614094482704E+08, -1.013993951343361E+08,
2461575.500000000, A.D. 2027-Jun-19 00:00:00.0000, 2.370712366731332E+08, -3.994906446584994E+08, -1.009710584637837E+08,
2461582.500000000, A.D. 2027-Jun-26 00:00:00.0000, 2.458075231856832E+08, -3.943393858994815E+08, -1.004970963666622E+08,
2461589.500000000, A.D. 2027-Jul-03 00:00:00.0000, 2.544328020912375E+08, -3.890100014630174E+08, -9.997773326165175E+07,
2461596.500000000, A.D. 2027-Jul-10 00:00:00.0000, 2.629432049067695E+08, -3.835049411891987E+08, -9.941321457161015E+07,
2461603.500000000, A.D. 2027-Jul-17 00:00:00.0000, 2.713349183941669E+08, -3.778267353079656E+08, -9.880380658893310E+07,
2461610.500000000, A.D. 2027-Jul-24 00:00:00.0000, 2.796041864288911E+08, -3.719779934294913E+08, -9.814979635958466E+07,
2461617.500000000, A.D. 2027-Jul-31 00:00:00.0000, 2.877473124104148E+08, -3.659614034484292E+08, -9.745149160407339E+07,
2461624.500000000, A.D. 2027-Aug-07 00:00:00.0000, 2.957606620132002E+08, -3.597797292117701E+08, -9.670922056289186E+07,
2461631.500000000, A.D. 2027-Aug-14 00:00:00.0000, 3.036406639758593E+08, -3.534358072052316E+08, -9.592333157606885E+07,
2461638.500000000, A.D. 2027-Aug-21 00:00:00.0000, 3.113838095448397E+08, -3.469325456225703E+08, -9.509419272819270E+07,
2461645.500000000, A.D. 2027-Aug-28 00:00:00.0000, 3.189866540028589E+08, -3.402729246142788E+08, -9.422219177523728E+07,
2461652.500000000, A.D. 2027-Sep-04 00:00:00.0000, 3.264458191011092E+08, -3.334599952143893E+08, -9.330773604096733E+07,
2461659.500000000, A.D. 2027-Sep-11 00:00:00.0000, 3.337579949998306E+08, -3.264968776084849E+08, -9.235125220979506E+07,
2461666.500000000, A.D. 2027-Sep-18 00:00:00.0000, 3.409199418499213E+08, -3.193867593947319E+08, -9.135318608216824E+07,
2461673.500000000, A.D. 2027-Sep-25 00:00:00.0000, 3.479284912437863E+08, -3.121328939169741E+08, -9.031400232048553E+07,
2461680.500000000, A.D. 2027-Oct-02 00:00:00.0000, 3.547805476097176E+08, -3.047385986436056E+08, -8.923418419074768E+07,
2461687.500000000, A.D. 2027-Oct-09 00:00:00.0000, 3.614730895713534E+08, -2.972072535978436E+08, -8.811423330283743E+07,
2461694.500000000, A.D. 2027-Oct-16 00:00:00.0000, 3.680031713342683E+08, -2.895422998949975E+08, -8.695466936000243E+07,
2461701.500000000, A.D. 2027-Oct-23 00:00:00.0000, 3.743679243586978E+08, -2.817472383925790E+08, -8.575602994205125E+07,
2461708.500000000, A.D. 2027-Oct-30 00:00:00.0000, 3.805645596933191E+08, -2.738256278432134E+08, -8.451887030714199E+07,
2461715.500000000, A.D. 2027-Nov-06 00:00:00.0000, 3.865903698076850E+08, -2.657810814239032E+08, -8.324376301395836E+07,
2461722.500000000, A.D. 2027-Nov-13 00:00:00.0000, 3.924427279377722E+08, -2.576172637202950E+08, -8.193129735237893E+07,
2461729.500000000, A.D. 2027-Nov-20 00:00:00.0000, 3.981190878449491E+08, -2.493378903529365E+08, -8.058207902743085E+07,
2461736.500000000, A.D. 2027-Nov-27 00:00:00.0000, 4.036169856050667E+08, -2.409467272816072E+08, -7.919673000261746E+07,
2461743.500000000, A.D. 2027-Dec-04 00:00:00.0000, 4.089340414038134E+08, -2.324475888752757E+08, -7.777588824249999E+07,
2461750.500000000, A.D. 2027-Dec-11 00:00:00.0000, 4.140679607867369E+08, -2.238443357132147E+08, -7.632020738279104E+07,
2461757.500000000, A.D. 2027-Dec-18 00:00:00.0000, 4.190165356373734E+08, -2.151408724571386E+08, -7.483035638065925E+07,
2461764.500000000, A.D. 2027-Dec-25 00:00:00.0000, 4.237776450343514E+08, -2.063411457965217E+08, -7.330701915918583E+07,
2461771.500000000, A.D. 2028-Jan-01 00:00:00.0000, 4.283492560288638E+08, -1.974491424524167E+08, -7.175089424870509E+07,
$$EOE